[{"OBJECT_NAME":"STARLINK-1965","OBJECT_ID":"2021-009U","EPOCH":"2026-03-09T22:00:01.999584","MEAN_MOTION":15.82162329,"ECCENTRICITY":0.00080631,"INCLINATION":53.0138,"RA_OF_ASC_NODE":281.45,"ARG_OF_PERICENTER":151.8598,"MEAN_ANOMALY":352.2336,"EPHEMERIS_TYPE":0,"CLASSIFICATION_TYPE":"U","NORAD_CAT_ID":47566,"ELEMENT_SET_NO":999,"REV_AT_EPOCH":596,"BSTAR":0.0011319384,"MEAN_MOTION_DOT":0.00243716,"MEAN_MOTION_DDOT":0},{"OBJECT_NAME":"STARLINK-36381","OBJECT_ID":"2026-037W","EPOCH":"2026-03-09T22:00:01.999584","MEAN_MOTION":15.81989309,"ECCENTRICITY":0.0001603,"INCLINATION":42.9989,"RA_OF_ASC_NODE":196.961,"ARG_OF_PERICENTER":276.4855,"MEAN_ANOMALY":299.2288,"EPHEMERIS_TYPE":0,"CLASSIFICATION_TYPE":"U","NORAD_CAT_ID":67952,"ELEMENT_SET_NO":999,"REV_AT_EPOCH":323,"BSTAR":0.00027898687,"MEAN_MOTION_DOT":0.00058536,"MEAN_MOTION_DDOT":0}]
